#aV2009  2 14  0  0   .00000000      96 DD+AD WGS84 FIT  NGA
## 1518 518400.00000000   900.00000000 54876  .0000000000000
+   31     2  3  4  5  6  7  8  9 10 11 12 13 14 15 16 17 18
+         19 20 21 22 23 24 25 26 27 28 29 30 31 32  0  0  0
+          0  0  0  0  0  0  0  0  0  0  0  0  0  0  0  0  0
+          0  0  0  0  0  0  0  0  0  0  0  0  0  0  0  0  0
+          0  0  0  0  0  0  0  0  0  0  0  0  0  0  0  0  0
++         0  0  0  0  0  0  0  0  0  0  0  0  0  0  0  0  0
++         0  0  0  0  0  0  0  0  0  0  0  0  0  0  0  0  0
++         0  0  0  0  0  0  0  0  0  0  0  0  0  0  0  0  0
++         0  0  0  0  0  0  0  0  0  0  0  0  0  0  0  0  0
++         0  0  0  0  0  0  0  0  0  0  0  0  0  0  0  0  0
%c cc cc ccc ccc cccc cccc cccc cccc ccccc ccccc ccccc ccccc
%c cc cc ccc ccc cccc cccc cccc cccc ccccc ccccc ccccc ccccc
%f  0.0000000  0.000000000  0.00000000000  0.000000000000000
%f  0.0000000  0.000000000  0.00000000000  0.000000000000000
%i    0    0    0    0      0      0      0      0         0
%i    0    0    0    0      0      0      0      0         0
/*      NGA, ST. LOUIS,MO.                                  
/*   EPHEMERIS COMPUTED FROM  3 DAYS OF DATA                
/* CCCCCCCCCCCCCCCCCCCCCCCCCCCCCCCCCCCCCCCCCCCCCCCCCCCCCCCCC
/* CCCCCCCCCCCCCCCCCCCCCCCCCCCCCCCCCCCCCCCCCCCCCCCCCCCCCCCCC
*  2009  2 14 12 30   .00000000                                                 
P  2 -13592.504606 -21869.403168  -7420.507988    157.441569                    
V  2   -399.049727  -9620.414612  29171.772121      -.013153                    
P  3  21231.535254  10945.661471 -12278.764496    352.933450                    
V  3 -15254.454906   1641.244142 -25187.571962       .053115                    
P  4  -4724.974653 -25416.640004   5032.583677   -336.311606                    
V  4   5624.058436   5105.688258  30657.192939      -.140375                    
P  5 -19799.478662  11383.139214  13157.910977   -674.425151                    
V  5   7765.001108 -15685.723608  24821.157751      -.472727                    
P  6  17270.479791  13578.845286 -14761.469209     56.965985                    
V  6 -19317.100264   -145.933420 -22417.478901      -.146110                    
P  7   9934.795365 -14052.633165 -20216.282749     22.657942                    
V  7   9378.860020  23898.005542 -12117.934638      -.003334                    
P  8   1610.368920 -23429.175630 -11957.015025   -190.602801                    
V  8   6069.606984  14125.838520 -27461.751230      -.017442                    
P  9 -16162.859441  -4118.921463  20055.026866     40.398549                    
V  9  -8750.617027 -25406.435126 -11792.502353       .020740                    
P 10 -12472.135214  -9009.512281 -21820.142665    -11.160688                    
V 10  18396.201316 -20203.159020  -1852.539243      -.006085                    
P 11  18418.513088    746.722104  19020.669765      7.538135                    
V 11  11230.546846  22174.423999 -11269.910214      -.011840                    
P 12 -20436.821413   7251.676166  15339.105021   -316.110204                    
V 12  11304.139080 -15853.008907  22769.949501       .037968                    
P 13  18963.418466  -6877.592228 -17393.122318    288.522830                    
V 13  20872.963993   6303.678936  20416.037786       .012527                    
P 14   1173.994531  15089.560387  21957.127292   -154.304487                    
V 14 -26855.660471  -5919.295731   5430.677575       .053561                    
P 15 -25643.413525  -6492.957818  -2650.855562   -256.560060                    
V 15   3852.563335  -2229.563469 -31403.977566      -.052336                    
P 16   6603.685870  14448.150307 -21187.678462     74.700922                    
V 16 -18713.083302  19570.271847   7711.348701      -.028453                    
P 17   1546.254425 -15238.910203  21758.942856     47.070133                    
V 17  26927.979799   5561.977010   1802.659208       .011734                    
P 18 -16430.066073  20482.286679   2548.685478    -83.476826                    
V 18  -4726.677104   -249.571062 -31385.548789       .035700                    
P 19  25831.056434   6704.151880    346.855889     32.409611                    
V 19   -357.503649   2718.589892 -31530.239334      -.006264                    
P 20  20697.071995 -10142.457882  13030.413825     90.803289                    
V 20  -8618.020911  14692.257225  24931.605866      -.010966                    
P 21  -7856.437379  17836.483275 -17531.430169     29.080813                    
V 21  -9430.354017 -21166.642865 -17704.582170      -.018608                    
P 22  -8188.216988  22032.109311  12466.774644    205.125550                    
V 22 -12740.232154   9515.272306 -25558.586553      -.007443                    
P 23  25176.649096  -1172.612056  -8849.274697    386.973193                    
V 23  10463.962392   4178.336183  29114.313654       .006142                    
P 24 -14874.167463   3865.021105 -21523.646251    165.484740                    
V 24  -7534.963229 -26648.035712    684.413275       .030377                    
P 25  12974.682629  -7390.349180 -21614.477790    241.726453                    
V 25  11772.449054  25708.732468  -1509.525870       .247016                    
P 26 -22823.378002 -11499.968821  -8691.858806     44.498308                    
V 26  10105.879488   1356.718537 -29612.297125       .028183                    
P 27  -9560.405599 -24700.138121   -863.620360     24.610310                    
V 27   3055.136113    807.239822 -32042.860595       .030793                    
P 28   9797.162103 -22035.878652  11165.955731    -23.653586                    
V 28  11040.855716  -8399.627986 -27614.605966       .000684                    
P 29 -20031.592107   6984.180192 -15856.993727    -10.099244                    
V 29 -19447.185490  -6284.740069  21691.972442       .033351                    
P 30 -18815.446330  17901.987894   4980.648362    126.297923                    
V 30   1761.318593  -7293.176608  30738.501188       .025323                    
P 31   6578.461616  25487.331125   3182.021790    -51.531987                    
V 31  -3661.592261  -2734.190627  31730.623467      -.013916                    
P 32  19297.345506   -862.624349  18530.427581    295.468165                    
V 32 -15314.793628  16924.872414  17348.110360      -.033919                    
EOF
